[{"OBJECT_NAME":"STARLINK-6072","OBJECT_ID":"2023-078AR","EPOCH":"2026-03-09T21:53:39.802272","MEAN_MOTION":14.98338105,"ECCENTRICITY":0.00026964,"INCLINATION":69.9991,"RA_OF_ASC_NODE":303.7408,"ARG_OF_PERICENTER":256.3468,"MEAN_ANOMALY":103.7391,"EPHEMERIS_TYPE":0,"CLASSIFICATION_TYPE":"U","NORAD_CAT_ID":56806,"ELEMENT_SET_NO":999,"REV_AT_EPOCH":15368,"BSTAR":6.6292384e-5,"MEAN_MOTION_DOT":6.98e-6,"MEAN_MOTION_DDOT":0},{"OBJECT_NAME":"COSMOS 2242","OBJECT_ID":"1993-024A","EPOCH":"2026-03-09T23:17:07.942848","MEAN_MOTION":14.96550444,"ECCENTRICITY":0.00151707,"INCLINATION":82.5157,"RA_OF_ASC_NODE":266.4481,"ARG_OF_PERICENTER":307.8411,"MEAN_ANOMALY":52.1437,"EPHEMERIS_TYPE":0,"CLASSIFICATION_TYPE":"U","NORAD_CAT_ID":22626,"ELEMENT_SET_NO":999,"REV_AT_EPOCH":78043,"BSTAR":0.00021609887,"MEAN_MOTION_DOT":2.488e-5,"MEAN_MOTION_DDOT":0}]
